NORAD_CAT_ID,OBJECT_NAME,OBJECT_TYPE,EPOCH,MEAN_MOTION,ECCENTRICITY,INCLINATION,RA_OF_ASC_NODE,ARG_OF_PERICENTER,MEAN_ANOMALY,BSTAR,MEAN_MOTION_DOT,MEAN_MOTION_DDOT,TLE_LINE0,TLE_LINE1,TLE_LINE2,SEMIMAJOR_AXIS,PERIOD,APOGEE,PERIGEE,DECAYED
53417.0,STARLINK-4484,PAYLOAD,2024-08-18 22:39:12,15.08841511,0.0001497,53.2166,142.8297,85.7159,274.4004,0.000188,2.705e-05,0.0,0 STARLINK-4484,1 53417U 22097AF  24231.94389857  .00002705  00000-0  18800-3 0  9999,2 53417  53.2166 142.8297 0001497  85.7159 274.4004 15.08841511112913,6917.876,95.437,540.776,538.705,0.0
53417.0,STARLINK-4484,PAYLOAD,2024-08-19 03:25:22,15.08838989,0.0001432,53.2161,141.9379,83.3259,276.7896,0.00010834,1.437e-05,0.0,0 STARLINK-4484,1 53417U 22097AF  24232.14261937  .00001437  00000-0  10834-3 0  9990,2 53417  53.2161 141.9379 0001432  83.3259 276.7896 15.08838989112484,6917.883,95.438,540.739,538.758,0.0
53417.0,STARLINK-4484,PAYLOAD,2024-08-19 11:22:17,15.08844414,0.0001365,53.2162,140.4514,90.2298,269.8851,0.00018544,2.665e-05,0.0,0 STARLINK-4484,1 53417U 22097AF  24232.47381684  .00002665  00000-0  18544-3 0  9998,2 53417  53.2162 140.4514 0001365  90.2298 269.8851 15.08844414112995,6917.867,95.437,540.676,538.788,0.0
53417.0,STARLINK-4484,PAYLOAD,2024-08-20 03:16:09,15.08843737,0.0001343,53.2161,137.4771,104.7219,255.3922,8.4245e-05,1.053e-05,0.0,0 STARLINK-4484,1 53417U 22097AF  24233.13621860  .00001053  00000-0  84245-4 0  9997,2 53417  53.2161 137.4771 0001343 104.7219 255.3922 15.08843737113093,6917.869,95.437,540.663,538.805,0.0
53417.0,STARLINK-4484,PAYLOAD,2024-08-20 20:45:23,15.08847151,0.0001245,53.2153,134.2068,96.4614,263.652,0.00025807,3.822e-05,0.0,0 STARLINK-4484,1 53417U 22097AF  24233.86485629  .00003822  00000-0  25807-3 0  9992,2 53417  53.2153 134.2068 0001245  96.4614 263.6520 15.08847151112746,6917.859,95.437,540.585,538.862,0.0
53417.0,STARLINK-4484,PAYLOAD,2024-08-21 03:06:56,15.08849707,0.0001218,53.2155,133.0173,97.4764,262.6367,0.00030553,4.579e-05,0.0,0 STARLINK-4484,1 53417U 22097AF  24234.12981574  .00004579  00000-0  30553-3 0  9996,2 53417  53.2155 133.0173 0001218  97.4764 262.6367 15.08849707113242,6917.851,95.437,540.558,538.873,0.0
53417.0,STARLINK-4484,PAYLOAD,2024-08-21 20:36:10,15.08839883,0.0001046,53.2147,129.7423,105.7763,254.3344,0.00016873,2.399e-05,0.0,0 STARLINK-4484,1 53417U 22097AF  24234.85845907  .00002399  00000-0  16873-3 0  9992,2 53417  53.2147 129.7423 0001046 105.7763 254.3344 15.08839883113353,6917.881,95.438,540.469,539.022,0.0
53417.0,STARLINK-4484,PAYLOAD,2024-08-21 22:11:33,15.08838517,0.0001304,53.215,129.4451,135.4383,224.6714,0.00010838,1.437e-05,0.0,0 STARLINK-4484,1 53417U 22097AF  24234.92469834  .00001437  00000-0  10838-3 0  9998,2 53417  53.2150 129.4451 0001304 135.4383 224.6714 15.08838517112904,6917.885,95.438,540.652,538.848,0.0
